TDRS 3                  
1 19548U 88091B   26196.76120102 -.00000310  00000+0  00000+0 0  9999
2 19548  12.5801 340.8118 0037039 355.5698 182.0141  1.00262408125675
FLTSATCOM 8 (USA 46)    
1 20253U 89077A   26196.79580914 -.00000379  00000+0  00000+0 0  9998
2 20253  12.4134 350.9873 0003310  72.1560 282.4324  1.00262690260843
SKYNET 4C               
1 20776U 90079A   26196.66556829 -.00000177  00000+0  00000+0 0  9992
2 20776  13.3290 349.6344 0002779 134.0262 237.6329  0.98578973   321
TDRS 5                  
1 21639U 91054B   26197.09420943  .00000072  00000+0  00000+0 0  9993
2 21639  14.0674 353.5632 0007405 258.1677 268.4219  1.00274005128006
TDRS 6                  
1 22314U 93003B   26197.14400942 -.00000308  00000+0  00000+0 0  9996
2 22314  14.1832 356.8397 0008449 184.4355 118.5566  1.00279409122693
UFO 2 (USA 95)          
1 22787U 93056A   26197.13295104  .00000112  00000+0  00000+0 0  9991
2 22787  11.9049   3.3905 0002423   7.5787 359.4757  1.00270885118840
UFO 4 (USA 108)         
1 23467U 95003A   26196.73381422 -.00000033  00000+0  00000+0 0  9998
2 23467   9.6765  13.0078 0003124 101.2295 255.8953  1.00276426115233
TDRS 7                  
1 23613U 95035B   26196.84191485 -.00000252  00000+0  00000+0 0  9999
2 23613  13.3652 347.9889 0011447  86.6886 251.3580  1.00273703113534
USA 115 (MILSTAR-1 2)   
1 23712U 95060A   26196.96690125 -.00000215  00000+0  00000+0 0  9994
2 23712  14.0831   3.5299 0006064 123.1760  65.1675  1.00272480 33176
INMARSAT 3-F1           
1 23839U 96020A   26196.57614199  .00000043  00000+0  00000+0 0  9993
2 23839  10.6580  46.3680 0004505  90.3043 238.9966  0.99980403110532
INMARSAT 3-F2           
1 24307U 96053A   26197.00872192 -.00000371  00000+0  00000+0 0  9993
2 24307   9.9196  53.6379 0006336  56.0657 308.2118  0.99991068109219
INMARSAT 3-F3           
1 24674U 96070A   26196.77361618  .00000019  00000+0  00000+0 0  9996
2 24674  10.3779  49.3738 0003585  78.6879  97.4554  0.99995482108190
USA 134                 
1 25019U 97065A   26197.03385536 -.00000077  00000+0  00000+0 0  9995
2 25019  12.8179  21.5031 0002583 335.5977 196.5486  1.00274124 33248
INMARSAT 3-F5           
1 25153U 98006B   26197.03784602 -.00000305  00000+0  00000+0 0  9991
2 25153   9.7560  52.9680 0004376  63.0030 137.5667  1.00272766104187
ABS-6                   
1 25924U 99053A   26196.80239584 -.00000130  00000+0  00000+0 0  9994
2 25924   0.0519 261.2970 0003189 195.9728 284.2253  1.00272202 98120
UFO 10 (USA 146)        
1 25967U 99063A   26196.82891856 -.00000201  00000+0  00000+0 0  9999
2 25967   9.8557  27.0549 0001625 120.6458  61.4367  1.00272492 97631
ASIASTAR                
1 26107U 00016A   26197.07678937 -.00000348  00000+0  00000+0 0  9999
2 26107   9.1951  57.8413 0003794  68.1452 300.5820  1.00270772 96212
USA 149 (DSP 20)        
1 26356U 00024A   26196.66704162  .00000084  00000+0  00000+0 0  9994
2 26356  13.1916  11.6463 0001817 313.8171  43.5812  1.00282501 33195
TDRS 8                  
1 26388U 00034A   26197.07280269 -.00000211  00000+0  00000+0 0  9996
2 26388  12.7277  31.0718 0003922  37.7996 336.1000  1.00272190 95472
NSS-11                  
1 26554U 00059A   26197.09091610  .00000013  00000+0  00000+0 0  9999
2 26554   2.1993  81.0459 0002887  41.8688  19.7330  1.00271223 41584
USA 153                 
1 26575U 00065A   26196.94003448 -.00000339  00000+0  00000+0 0  9996
2 26575  11.6727  35.1771 0002082  57.3441 314.1430  1.00272600 33225
AMC-6                   
1 26580U 00067A   26197.02934868  .00000078  00000+0  00000+0 0  9992
2 26580   0.2238  83.6973 0003866  43.6804  41.9978  1.00271260 94181
USA 157 (MILSTAR-2 2)   
1 26715U 01009A   26196.66990164  .00000096  00000+0  00000+0 0  9999
2 26715  11.5737  19.5834 0040482 179.3256 185.6885  1.00274559 33233
INTELSAT 902 (IS-902)   
1 26900U 01039A   26197.10114556 -.00000297  00000+0  00000+0 0  9995
2 26900   6.1871  71.4271 0004216  42.6154 166.2078  1.00272315 90986
USA 164 (MILSTAR-2 3)   
1 27168U 02001A   26196.70331660  .00000085  00000+0  00000+0 0  9998
2 27168  11.2131  21.7297 0098573   9.0219 175.0453  1.00277618 33245
INTELSAT 904 (IS-904)   
1 27380U 02007A   26197.09558764 -.00000239  00000+0  00000+0 0  9991
2 27380   6.9902  68.8335 0005388  26.1937 201.8403  1.00270497 52053
DIRECTV 5 (TEMPO 1)     
1 27426U 02023A   26197.10562498 -.00000070  00000+0  00000+0 0  9994
2 27426   4.9497  74.9481 0003124  47.2032  99.6998  1.00271453 88411
INTELSAT 905 (IS-905)   
1 27438U 02027A   26196.74378094  .00000080  00000+0  00000+0 0  9997
2 27438   6.8231  69.4519 0003439  47.2275 307.4543  1.00271188 51646
GALAXY 3C (G-3C)        
1 27445U 02030A   26197.10857166 -.00000165  00000+0  00000+0 0  9997
2 27445   3.8066  77.6001 0001584  33.4771 127.1170  1.00270773 46782
INTELSAT 906 (IS-906)   
1 27513U 02041A   26197.14005774 -.00000001  00000+0  00000+0 0  9998
2 27513   5.8732  72.5625 0003779  26.1655 309.8259  1.00273340 87318
NIMIQ 2                 
1 27632U 02062A   26196.67796169 -.00000083  00000+0  00000+0 0  9995
2 27632   9.5102  56.5942 0005303  54.7615 317.0171  1.00271033 44475
