OBJECT_NAME,OBJECT_ID,EPOCH,MEAN_MOTION,ECCENTRICITY,INCLINATION,RA_OF_ASC_NODE,ARG_OF_PERICENTER,MEAN_ANOMALY,EPHEMERIS_TYPE,CLASSIFICATION_TYPE,NORAD_CAT_ID,ELEMENT_SET_NO,REV_AT_EPOCH,BSTAR,MEAN_MOTION_DOT,MEAN_MOTION_DDOT
TDRS 3,1988-091B,2026-07-15T18:16:07.768128,1.00262408,.00370397,12.5801,340.8118,355.5698,182.0141,0,U,19548,999,12567,0,-.31E-5,0
FLTSATCOM 8 (USA 46),1989-077A,2026-07-15T19:05:57.909696,1.00262690,.00033102,12.4134,350.9873,72.1560,282.4324,0,U,20253,999,26084,0,-.379E-5,0
SKYNET 4C,1990-079A,2026-07-15T15:58:25.100256,0.98578973,.00027792,13.3290,349.6344,134.0262,237.6329,0,U,20776,999,32,0,-.177E-5,0
TDRS 5,1991-054B,2026-07-16T02:15:39.694752,1.00274005,.0007405,14.0674,353.5632,258.1677,268.4219,0,U,21639,999,12800,0,.72E-6,0
TDRS 6,1993-003B,2026-07-16T03:27:22.413888,1.00279409,.0008449,14.1832,356.8397,184.4355,118.5566,0,U,22314,999,12269,0,-.308E-5,0
UFO 2 (USA 95),1993-056A,2026-07-16T03:11:26.969856,1.00270885,.0002423,11.9049,3.3905,7.5787,359.4757,0,U,22787,999,11884,0,.112E-5,0
UFO 4 (USA 108),1995-003A,2026-07-15T17:36:41.548608,1.00276426,.00031248,9.6765,13.0078,101.2295,255.8953,0,U,23467,999,11523,0,-.33E-6,0
TDRS 7,1995-035B,2026-07-15T20:12:21.443040,1.00273703,.0011447,13.3652,347.9889,86.6886,251.3580,0,U,23613,999,11353,0,-.252E-5,0
USA 115 (MILSTAR-1 2),1995-060A,2026-07-15T23:12:20.268000,1.00272480,.0006064,14.0831,3.5299,123.1760,65.1675,0,U,23712,999,3317,0,-.215E-5,0
INMARSAT 3-F1,1996-020A,2026-07-15T13:49:38.667936,0.99980403,.00045051,10.6580,46.3680,90.3043,238.9966,0,U,23839,999,11053,0,.43E-6,0
INMARSAT 3-F2,1996-053A,2026-07-16T00:12:33.573888,0.99991068,.0006336,9.9196,53.6379,56.0657,308.2118,0,U,24307,999,10921,0,-.371E-5,0
INMARSAT 3-F3,1996-070A,2026-07-15T18:34:00.437952,0.99995482,.00035858,10.3779,49.3738,78.6879,97.4554,0,U,24674,999,10819,0,.19E-6,0
USA 134,1997-065A,2026-07-16T00:48:45.103104,1.00274124,.0002583,12.8179,21.5031,335.5977,196.5486,0,U,25019,999,3324,0,-.77E-6,0
INMARSAT 3-F5,1998-006B,2026-07-16T00:54:29.896128,1.00272766,.0004376,9.7560,52.9680,63.0030,137.5667,0,U,25153,999,10418,0,-.305E-5,0
ABS-6,1999-053A,2026-07-15T19:15:27.000576,1.00272202,.00031892,0.0519,261.2970,195.9728,284.2253,0,U,25924,999,9812,0,-.13E-5,0
UFO 10 (USA 146),1999-063A,2026-07-15T19:53:38.563584,1.00272492,.00016252,9.8557,27.0549,120.6458,61.4367,0,U,25967,999,9763,0,-.201E-5,0
ASIASTAR,2000-016A,2026-07-16T01:50:34.601568,1.00270772,.0003794,9.1951,57.8413,68.1452,300.5820,0,U,26107,999,9621,0,-.348E-5,0
USA 149 (DSP 20),2000-024A,2026-07-15T16:00:32.395968,1.00282501,.0001817,13.1916,11.6463,313.8171,43.5812,0,U,26356,999,3319,0,.84E-6,0
TDRS 8,2000-034A,2026-07-16T01:44:50.152416,1.00272190,.0003922,12.7277,31.0718,37.7996,336.1000,0,U,26388,999,9547,0,-.211E-5,0
NSS-11,2000-059A,2026-07-16T02:10:55.151040,1.00271223,.0002887,2.1993,81.0459,41.8688,19.7330,0,U,26554,999,4158,0,.13E-6,0
USA 153,2000-065A,2026-07-15T22:33:38.979072,1.00272600,.0002082,11.6727,35.1771,57.3441,314.1430,0,U,26575,999,3322,0,-.339E-5,0
AMC-6,2000-067A,2026-07-16T00:42:15.725952,1.00271260,.0003866,0.2238,83.6973,43.6804,41.9978,0,U,26580,999,9418,0,.78E-6,0
USA 157 (MILSTAR-2 2),2001-009A,2026-07-15T16:04:39.501696,1.00274559,.0040482,11.5737,19.5834,179.3256,185.6885,0,U,26715,999,3323,0,.96E-6,0
INTELSAT 902 (IS-902),2001-039A,2026-07-16T02:25:38.976384,1.00272315,.0004216,6.1871,71.4271,42.6154,166.2078,0,U,26900,999,9098,0,-.297E-5,0
USA 164 (MILSTAR-2 3),2002-001A,2026-07-15T16:52:46.554240,1.00277618,.0098573,11.2131,21.7297,9.0219,175.0453,0,U,27168,999,3324,0,.85E-6,0
INTELSAT 904 (IS-904),2002-007A,2026-07-16T02:17:38.772096,1.00270497,.0005388,6.9902,68.8335,26.1937,201.8403,0,U,27380,999,5205,0,-.239E-5,0
DIRECTV 5 (TEMPO 1),2002-023A,2026-07-16T02:32:05.998272,1.00271453,.0003124,4.9497,74.9481,47.2032,99.6998,0,U,27426,999,8841,0,-.7E-6,0
INTELSAT 905 (IS-905),2002-027A,2026-07-15T17:51:02.673216,1.00271188,.00034396,6.8231,69.4519,47.2275,307.4543,0,U,27438,999,5164,0,.8E-6,0
GALAXY 3C (G-3C),2002-030A,2026-07-16T02:36:20.591424,1.00270773,.0001584,3.8066,77.6001,33.4771,127.1170,0,U,27445,999,4678,0,-.165E-5,0
INTELSAT 906 (IS-906),2002-041A,2026-07-16T03:21:40.988736,1.00273340,.0003779,5.8732,72.5625,26.1655,309.8259,0,U,27513,999,8731,0,-.1E-7,0
NIMIQ 2,2002-062A,2026-07-15T16:16:15.890016,1.00271033,.0005303,9.5102,56.5942,54.7615,317.0171,0,U,27632,999,4447,0,-.83E-6,0
